{
  "type": "FeatureCollection",
  "features": [
    {
      "type": "Feature",
      "properties": {
        "norad_id": 40730,
        "name": "GPS BIIF-10 (PRN 08)",
        "group": "gps-ops",
        "lat": 34.978085742238555,
        "lon": 63.82505122478172,
        "alt_km": 20265.74425606157,
        "timestamp": "2025-12-26T09:30:53.896554+00:00",
        "meta_object_name": "GPS BIIF-10 (PRN 08)",
        "meta_object_id": "2015-033A",
        "meta_epoch": "2025-12-24T17:11:33.292320",
        "meta_mean_motion": 2.00564999,
        "meta_eccentricity": 0.0111668,
        "meta_inclination": 54.1203,
        "meta_ra_of_asc_node": 274.2801,
        "meta_arg_of_pericenter": 27.125,
        "meta_mean_anomaly": 333.5048,
        "meta_ephemeris_type": 0,
        "meta_classification_type": "U",
        "meta_norad_cat_id": 40730,
        "meta_element_set_no": 999,
        "meta_rev_at_epoch": 7649,
        "meta_bstar": 0,
        "meta_mean_motion_dot": -1.6e-07,
        "meta_mean_motion_ddot": 0,
        "tle_line1": "1 40730U 15033A   25358.71635755 -.00000016  00000+0  00000+0 0  9994",
        "tle_line2": "2 40730  54.1203 274.2801 0111668  27.1250 333.5048  2.00564999 76491"
      },
      "geometry": {
        "type": "Point",
        "coordinates": [
          63.82505122478172,
          34.978085742238555
        ]
      }
    },
    {
      "type": "Feature",
      "properties": {
        "norad_id": 41019,
        "name": "GPS BIIF-11 (PRN 10)",
        "group": "gps-ops",
        "lat": 56.80730546274403,
        "lon": 124.75924441472783,
        "alt_km": 20406.600107388265,
        "timestamp": "2025-12-26T09:30:53.896566+00:00",
        "meta_object_name": "GPS BIIF-11 (PRN 10)",
        "meta_object_id": "2015-062A",
        "meta_epoch": "2025-12-25T18:32:56.825952",
        "meta_mean_motion": 2.00567045,
        "meta_eccentricity": 0.0111123,
        "meta_inclination": 56.8416,
        "meta_ra_of_asc_node": 37.4983,
        "meta_arg_of_pericenter": 230.2832,
        "meta_mean_anomaly": 128.7928,
        "meta_ephemeris_type": 0,
        "meta_classification_type": "U",
        "meta_norad_cat_id": 41019,
        "meta_element_set_no": 999,
        "meta_rev_at_epoch": 7435,
        "meta_bstar": 0,
        "meta_mean_motion_dot": -4.8e-07,
        "meta_mean_motion_ddot": 0,
        "tle_line1": "1 41019U 15062A   25359.77287993 -.00000048  00000+0  00000+0 0  9996",
        "tle_line2": "2 41019  56.8416  37.4983 0111123 230.2832 128.7928  2.00567045 74355"
      },
      "geometry": {
        "type": "Point",
        "coordinates": [
          124.75924441472783,
          56.80730546274403
        ]
      }
    },
    {
      "type": "Feature",
      "properties": {
        "norad_id": 41328,
        "name": "GPS BIIF-12 (PRN 32)",
        "group": "gps-ops",
        "lat": 24.358751586172442,
        "lon": 114.49660742799819,
        "alt_km": 20383.73204485847,
        "timestamp": "2025-12-26T09:30:53.896578+00:00",
        "meta_object_name": "GPS BIIF-12 (PRN 32)",
        "meta_object_id": "2016-007A",
        "meta_epoch": "2025-12-25T20:32:16.173600",
        "meta_mean_motion": 2.00559967,
        "meta_eccentricity": 0.0092825,
        "meta_inclination": 55.4133,
        "meta_ra_of_asc_node": 96.3364,
        "meta_arg_of_pericenter": 243.9275,
        "meta_mean_anomaly": 115.1304,
        "meta_ephemeris_type": 0,
        "meta_classification_type": "U",
        "meta_norad_cat_id": 41328,
        "meta_element_set_no": 999,
        "meta_rev_at_epoch": 7236,
        "meta_bstar": 0,
        "meta_mean_motion_dot": 1.1e-07,
        "meta_mean_motion_ddot": 0,
        "tle_line1": "1 41328U 16007A   25359.85574275  .00000011  00000+0  00000+0 0  9999",
        "tle_line2": "2 41328  55.4133  96.3364 0092825 243.9275 115.1304  2.00559967 72366"
      },
      "geometry": {
        "type": "Point",
        "coordinates": [
          114.49660742799819,
          24.358751586172442
        ]
      }
    },
    {
      "type": "Feature",
      "properties": {
        "norad_id": 43873,
        "name": "GPS BIII-1  (PRN 04)",
        "group": "gps-ops",
        "lat": -53.10753014428523,
        "lon": 33.16258799504904,
        "alt_km": 20186.100890230166,
        "timestamp": "2025-12-26T09:30:53.896590+00:00",
        "meta_object_name": "GPS BIII-1  (PRN 04)",
        "meta_object_id": "2018-109A",
        "meta_epoch": "2025-12-24T12:17:00.757248",
        "meta_mean_motion": 2.00553945,
        "meta_eccentricity": 0.00376159,
        "meta_inclination": 55.5731,
        "meta_ra_of_asc_node": 99.0827,
        "meta_arg_of_pericenter": 195.5593,
        "meta_mean_anomaly": 167.4766,
        "meta_ephemeris_type": 0,
        "meta_classification_type": "U",
        "meta_norad_cat_id": 43873,
        "meta_element_set_no": 999,
        "meta_rev_at_epoch": 5157,
        "meta_bstar": 0,
        "meta_mean_motion_dot": 1.7e-07,
        "meta_mean_motion_ddot": 0,
        "tle_line1": "1 43873U 18109A   25358.51181432  .00000017  00000+0  00000+0 0  9998",
        "tle_line2": "2 43873  55.5731  99.0827 0037615 195.5593 167.4766  2.00553945 51575"
      },
      "geometry": {
        "type": "Point",
        "coordinates": [
          33.16258799504904,
          -53.10753014428523
        ]
      }
    },
    {
      "type": "Feature",
      "properties": {
        "norad_id": 44506,
        "name": "GPS BIII-2  (PRN 18)",
        "group": "gps-ops",
        "lat": -0.9681082503917775,
        "lon": 158.6591350025025,
        "alt_km": 20036.23304924106,
        "timestamp": "2025-12-26T09:30:53.896601+00:00",
        "meta_object_name": "GPS BIII-2  (PRN 18)",
        "meta_object_id": "2019-056A",
        "meta_epoch": "2025-12-26T04:52:46.864416",
        "meta_mean_motion": 2.00566478,
        "meta_eccentricity": 0.0057778,
        "meta_inclination": 55.7164,
        "meta_ra_of_asc_node": 338.0189,
        "meta_arg_of_pericenter": 198.675,
        "meta_mean_anomaly": 203.194,
        "meta_ephemeris_type": 0,
        "meta_classification_type": "U",
        "meta_norad_cat_id": 44506,
        "meta_element_set_no": 999,
        "meta_rev_at_epoch": 4660,
        "meta_bstar": 0,
        "meta_mean_motion_dot": -5.8e-07,
        "meta_mean_motion_ddot": 0,
        "tle_line1": "1 44506U 19056A   25360.20332019 -.00000058  00000+0  00000+0 0  9998",
        "tle_line2": "2 44506  55.7164 338.0189 0057778 198.6750 203.1940  2.00566478 46604"
      },
      "geometry": {
        "type": "Point",
        "coordinates": [
          158.6591350025025,
          -0.9681082503917775
        ]
      }
    },
    {
      "type": "Feature",
      "properties": {
        "norad_id": 45854,
        "name": "GPS BIII-3  (PRN 23)",
        "group": "gps-ops",
        "lat": 43.47638472403737,
        "lon": 176.88366045092548,
        "alt_km": 20146.787473371638,
        "timestamp": "2025-12-26T09:30:53.896613+00:00",
        "meta_object_name": "GPS BIII-3  (PRN 23)",
        "meta_object_id": "2020-041A",
        "meta_epoch": "2025-12-26T02:21:52.107264",
        "meta_mean_motion": 2.00561537,
        "meta_eccentricity": 0.0060678,
        "meta_inclination": 56.5559,
        "meta_ra_of_asc_node": 35.666,
        "meta_arg_of_pericenter": 203.7847,
        "meta_mean_anomaly": 66.2428,
        "meta_ephemeris_type": 0,
        "meta_classification_type": "U",
        "meta_norad_cat_id": 45854,
        "meta_element_set_no": 999,
        "meta_rev_at_epoch": 4056,
        "meta_bstar": 0,
        "meta_mean_motion_dot": -5e-07,
        "meta_mean_motion_ddot": 0,
        "tle_line1": "1 45854U 20041A   25360.09851976 -.00000050  00000+0  00000+0 0  9998",
        "tle_line2": "2 45854  56.5559  35.6660 0060678 203.7847  66.2428  2.00561537 40569"
      },
      "geometry": {
        "type": "Point",
        "coordinates": [
          176.88366045092548,
          43.47638472403737
        ]
      }
    },
    {
      "type": "Feature",
      "properties": {
        "norad_id": 46826,
        "name": "GPS BIII-4  (PRN 14)",
        "group": "gps-ops",
        "lat": 53.602191121944365,
        "lon": -42.471695091704795,
        "alt_km": 20227.714403038615,
        "timestamp": "2025-12-26T09:30:53.896626+00:00",
        "meta_object_name": "GPS BIII-4  (PRN 14)",
        "meta_object_id": "2020-078A",
        "meta_epoch": "2025-12-16T01:06:13.902336",
        "meta_mean_motion": 2.00566891,
        "meta_eccentricity": 0.0064754,
        "meta_inclination": 54.0144,
        "meta_ra_of_asc_node": 218.2068,
        "meta_arg_of_pericenter": 203.3802,
        "meta_mean_anomaly": 339.3962,
        "meta_ephemeris_type": 0,
        "meta_classification_type": "U",
        "meta_norad_cat_id": 46826,
        "meta_element_set_no": 999,
        "meta_rev_at_epoch": 3783,
        "meta_bstar": 0,
        "meta_mean_motion_dot": 6.7e-07,
        "meta_mean_motion_ddot": 0,
        "tle_line1": "1 46826U 20078A   25350.04599424  .00000067  00000+0  00000+0 0  9996",
        "tle_line2": "2 46826  54.0144 218.2068 0064754 203.3802 339.3962  2.00566891 37830"
      },
      "geometry": {
        "type": "Point",
        "coordinates": [
          -42.471695091704795,
          53.602191121944365
        ]
      }
    }
  ]
}